[ {"name": "LAPAN-A3", "line1": "1 41603U 16040E   26156.24654762  .00004081  00000+0  13003-3 0  9993", "line2": "2 41603  97.1489 152.7856 0011991  63.8443 296.4032 15.33027575552980"}, {"name": "GAOFEN-3", "line1": "1 41727U 16049A   26156.15094992 -.00000001  00000+0  12899-4 0  9994", "line2": "2 41727  98.4010 164.1186 0001142  97.6907 262.4412 14.42213724516911"}, {"name": "SKYSAT-C4", "line1": "1 41771U 16058B   26156.05327963  .00018595  00000+0  35470-3 0  9994", "line2": "2 41771  96.9178 178.3365 0000982  77.9897 282.1465 15.48195389543598"}, {"name": "SKYSAT-C5", "line1": "1 41772U 16058C   26156.03909883  .00008967  00000+0  27230-3 0  9997", "line2": "2 41772  97.0472 197.2227 0002434  16.0631 344.0690 15.34290516541880"}, {"name": "SKYSAT-C2", "line1": "1 41773U 16058D   26155.99397344  .00013721  00000+0  32582-3 0  9995", "line2": "2 41773  97.0170 178.5502 0005205  96.2238 263.9603 15.41782784543174"}, {"name": "SKYSAT-C3", "line1": "1 41774U 16058E   26156.02409194  .00026064  00000+0  43390-3 0  9991", "line2": "2 41774  96.9012 187.3437 0002114  80.2554 279.8939 15.52003497544227"}, {"name": "ALSAT-1B", "line1": "1 41785U 16059C   26156.21063052  .00000785  00000+0  13179-3 0  9998", "line2": "2 41785  97.7748 165.4914 0007711 266.0811  93.9516 14.72267098518811"}, {"name": "PATHFINDER 1", "line1": "1 41787U 16059E   26156.00099839  .00000714  00000+0  13318-3 0  9996", "line2": "2 41787  97.8166 155.8274 0027071 243.8989 115.9430 14.67649089517929"}, {"name": "SCATSAT 1", "line1": "1 41790U 16059H   26156.03973176  .00001311  00000+0  17889-3 0  9999", "line2": "2 41790  98.1196 219.6804 0053310 287.5995  71.9398 14.79500350 99799"}, {"name": "GOKTURK 1A", "line1": "1 41875U 16073A   26156.13819660  .00000562  00000+0  11944-3 0  9990", "line2": "2 41875  98.1264  51.0011 0001470  75.7101 284.4264 14.62766149507062"}, {"name": "RESOURCESAT-2A", "line1": "1 41877U 16074A   26156.17620308  .00000395  00000+0  20034-3 0  9990", "line2": "2 41877  98.7526 229.7780 0003271 105.9464 254.2074 14.21613401492599"}, {"name": "CARTOSAT-2D", "line1": "1 41948U 17008A   26155.77623277 -.00002376  00000+0 -10973-3 0  9994", "line2": "2 41948  97.4117 215.3117 0003841 296.6092  63.4749 15.19226465515697"}, {"name": "SENTINEL-2B", "line1": "1 42063U 17013A   26156.17950147  .00000198  00000+0  92236-4 0  9994", "line2": "2 42063  98.5691 231.1226 0001216  82.8806 277.2515 14.30813695482928"}, {"name": "CARTOSAT-2E", "line1": "1 42767U 17036C   26156.18898924  .00004728  00000+0  22767-3 0  9999", "line2": "2 42767  97.4275 216.1885 0003450   9.3452 350.7846 15.19224315496328"}, {"name": "FORMOSAT-5", "line1": "1 42920U 17049A   26156.05326110  .00000221  00000+0  66895-4 0  9998", "line2": "2 42920  98.2254 231.6323 0012589 117.8776 242.3695 14.50894237464919"}, {"name": "SENTINEL-5P", "line1": "1 42969U 17064A   26156.07828073  .00000076  00000+0  57303-4 0  9997", "line2": "2 42969  98.7922  98.2959 0001004  81.1528 278.9761 14.19516861447840"}, {"name": "SKYSAT-C11", "line1": "1 42987U 17068A   26155.46522134  .00030496  00000+0  41977-3 0  9990", "line2": "2 42987  97.4344 303.7498 0001220  89.5801 270.5594 15.57213211481264"}, {"name": "SKYSAT-C10", "line1": "1 42988U 17068B   26156.09839000  .00010353  00000+0  31286-3 0  9996", "line2": "2 42988  97.4497 292.8308 0001320  89.7372 270.4022 15.34423350480501"}, {"name": "SKYSAT-C9", "line1": "1 42989U 17068C   26155.19038147  .00014971  00000+0  36175-3 0  9992", "line2": "2 42989  97.4417 292.7260 0008708 175.2134 184.9197 15.41226215480752"}, {"name": "SKYSAT-C8", "line1": "1 42990U 17068D   26154.65543428  .00011964  00000+0  33597-3 0  9991", "line2": "2 42990  97.4513 291.1227 0001587 100.5716 259.5707 15.36695849480238"}, {"name": "SKYSAT-C7", "line1": "1 42991U 17068E   26154.32299353  .00012311  00000+0  34606-3 0  9990", "line2": "2 42991  97.4524 291.7746 0006811 147.4751 212.6913 15.36634585480247"}, {"name": "SKYSAT-C6", "line1": "1 42992U 17068F   26154.84043350  .00010246  00000+0  31167-3 0  9996", "line2": "2 42992  97.4560 292.3173 0002707 163.5662 196.5669 15.34215986480278"}, {"name": "CARTOSAT-2F", "line1": "1 43111U 18004A   26156.15506182  .00005290  00000+0  25400-3 0  9990", "line2": "2 43111  97.4791 215.9064 0000315   8.9016 351.2223 15.19279815465505"}, {"name": "GAOFEN-1 02", "line1": "1 43259U 18031A   26156.16757641  .00000825  00000+0  12597-3 0  9994", "line2": "2 43259  98.0527 218.7273 0004483  59.9815 300.1839 14.76464541440927"}, {"name": "GAOFEN-1 03", "line1": "1 43260U 18031B   26156.21349378  .00000886  00000+0  13470-3 0  9994", "line2": "2 43260  98.0526 218.6331 0003789 103.1647 256.9985 14.76451859440923"}, {"name": "GAOFEN-1 04", "line1": "1 43262U 18031D   26156.18924155  .00000579  00000+0  90605-4 0  9999", "line2": "2 43262  98.0529 218.7978 0002188  93.8222 266.3237 14.76460476440911"}, {"name": "SENTINEL-3B", "line1": "1 43437U 18039A   26155.70658990  .00000142  00000+0  76756-4 0  9996", "line2": "2 43437  98.6251 223.4174 0000951  75.6622 284.4664 14.26738189422348"}, {"name": "GAOFEN-5 01", "line1": "1 43461U 18043A   26156.21030773  .00000361  00000+0  84393-4 0  9997", "line2": "2 43461  98.4563 127.5456 0002950 105.3345 254.8180 14.60596570429941"}, {"name": "GAOFEN-6", "line1": "1 43484U 18048A   26156.21241500  .00001046  00000+0  15670-3 0  9991", "line2": "2 43484  97.7760 219.3351 0011146 208.0161 152.0450 14.76619437431627"}, {"name": "GAOFEN-11 01", "line1": "1 43585U 18063A   26156.20490581  .00013518  00000+0  20347-3 0  9998", "line2": "2 43585  97.1295 223.1200 0004449  39.2382 320.9194 15.54930051438486"}]