OBJECT_NAME,OBJECT_ID,EPOCH,MEAN_MOTION,ECCENTRICITY,INCLINATION,RA_OF_ASC_NODE,ARG_OF_PERICENTER,MEAN_ANOMALY,EPHEMERIS_TYPE,CLASSIFICATION_TYPE,NORAD_CAT_ID,ELEMENT_SET_NO,REV_AT_EPOCH,BSTAR,MEAN_MOTION_DOT,MEAN_MOTION_DDOT
LAPAN-A3,2016-040E,2026-06-05T05:55:01.714368,15.33027575,.0011991,97.1489,152.7856,63.8443,296.4032,0,U,41603,999,55298,.13003E-3,.4081E-4,0
GAOFEN-3,2016-049A,2026-06-05T03:37:22.073088,14.42213724,.0001142,98.4010,164.1186,97.6907,262.4412,0,U,41727,999,51691,.12899E-4,-.1E-7,0
SKYSAT-C4,2016-058B,2026-06-05T01:16:43.360032,15.48195389,.0000982,96.9178,178.3365,77.9897,282.1465,0,U,41771,999,54359,.3547E-3,.18595E-3,0
SKYSAT-C5,2016-058C,2026-06-05T00:56:18.138912,15.34290516,.0002434,97.0472,197.2227,16.0631,344.0690,0,U,41772,999,54188,.2723E-3,.8967E-4,0
SKYSAT-C2,2016-058D,2026-06-04T23:51:19.305216,15.41782784,.0005205,97.0170,178.5502,96.2238,263.9603,0,U,41773,999,54317,.32582E-3,.13721E-3,0
SKYSAT-C3,2016-058E,2026-06-05T00:34:41.543616,15.52003497,.0002114,96.9012,187.3437,80.2554,279.8939,0,U,41774,999,54422,.4339E-3,.26064E-3,0
ALSAT-1B,2016-059C,2026-06-05T05:03:18.476928,14.72267098,.0007711,97.7748,165.4914,266.0811,93.9516,0,U,41785,999,51881,.13179E-3,.785E-5,0
PATHFINDER 1,2016-059E,2026-06-05T00:01:26.260896,14.67649089,.0027071,97.8166,155.8274,243.8989,115.9430,0,U,41787,999,51792,.13318E-3,.714E-5,0
SCATSAT 1,2016-059H,2026-06-05T00:57:12.824064,14.79500350,.005331,98.1196,219.6804,287.5995,71.9398,0,U,41790,999,9979,.17889E-3,.1311E-4,0
GOKTURK 1A,2016-073A,2026-06-05T03:19:00.186240,14.62766149,.000147,98.1264,51.0011,75.7101,284.4264,0,U,41875,999,50706,.11944E-3,.562E-5,0
RESOURCESAT-2A,2016-074A,2026-06-05T04:13:43.946112,14.21613401,.0003271,98.7526,229.7780,105.9464,254.2074,0,U,41877,999,49259,.20034E-3,.395E-5,0
CARTOSAT-2D,2017-008A,2026-06-04T18:37:46.511328,15.19226465,.00038419,97.4117,215.3117,296.6092,63.4749,0,U,41948,999,51569,-.10973309E-3,-.2376E-4,0
SENTINEL-2B,2017-013A,2026-06-05T04:18:28.927008,14.30813695,.0001216,98.5691,231.1226,82.8806,277.2515,0,U,42063,999,48292,.92236E-4,.198E-5,0
CARTOSAT-2E,2017-036C,2026-06-05T04:32:08.670336,15.19224315,.000345,97.4275,216.1885,9.3452,350.7846,0,U,42767,999,49632,.22767E-3,.4728E-4,0
FORMOSAT-5,2017-049A,2026-06-05T01:16:41.759040,14.50894237,.0012589,98.2254,231.6323,117.8776,242.3695,0,U,42920,999,46491,.66895E-4,.221E-5,0
SENTINEL-5P,2017-064A,2026-06-05T01:52:43.455072,14.19516861,.0001004,98.7922,98.2959,81.1528,278.9761,0,U,42969,999,44784,.57303E-4,.76E-6,0
SKYSAT-C11,2017-068A,2026-06-04T11:09:55.123776,15.57213211,.00012207,97.4344,303.7498,89.5801,270.5594,0,U,42987,999,48126,.41977027E-3,.30496E-3,0
SKYSAT-C10,2017-068B,2026-06-05T02:21:40.896000,15.34423350,.000132,97.4497,292.8308,89.7372,270.4022,0,U,42988,999,48050,.31286E-3,.10353E-3,0
SKYSAT-C9,2017-068C,2026-06-04T04:34:08.959008,15.41226215,.00087083,97.4417,292.7260,175.2134,184.9197,0,U,42989,999,48075,.36175194E-3,.14971E-3,0
SKYSAT-C8,2017-068D,2026-06-03T15:43:49.521792,15.36695849,.00015876,97.4513,291.1227,100.5716,259.5707,0,U,42990,999,48023,.33596648E-3,.11964E-3,0
SKYSAT-C7,2017-068E,2026-06-03T07:45:06.640992,15.36634585,.00068117,97.4524,291.7746,147.4751,212.6913,0,U,42991,999,48024,.34605537E-3,.12311E-3,0
SKYSAT-C6,2017-068F,2026-06-03T20:10:13.454400,15.34215986,.00027079,97.4560,292.3173,163.5662,196.5669,0,U,42992,999,48027,.31166974E-3,.10246E-3,0
CARTOSAT-2F,2018-004A,2026-06-05T03:43:17.341248,15.19279815,.0000315,97.4791,215.9064,8.9016,351.2223,0,U,43111,999,46550,.254E-3,.529E-4,0
GAOFEN-1 02,2018-031A,2026-06-05T04:01:18.601824,14.76464541,.0004483,98.0527,218.7273,59.9815,300.1839,0,U,43259,999,44092,.12597E-3,.825E-5,0
GAOFEN-1 03,2018-031B,2026-06-05T05:07:25.862592,14.76451859,.0003789,98.0526,218.6331,103.1647,256.9985,0,U,43260,999,44092,.1347E-3,.886E-5,0
GAOFEN-1 04,2018-031D,2026-06-05T04:32:30.469920,14.76460476,.0002188,98.0529,218.7978,93.8222,266.3237,0,U,43262,999,44091,.90605E-4,.579E-5,0
SENTINEL-3B,2018-039A,2026-06-04T16:57:29.367360,14.26738189,.0000951,98.6251,223.4174,75.6622,284.4664,0,U,43437,999,42234,.76756E-4,.142E-5,0
GAOFEN-5 01,2018-043A,2026-06-05T05:02:50.587872,14.60596570,.000295,98.4563,127.5456,105.3345,254.8180,0,U,43461,999,42994,.84393E-4,.361E-5,0
GAOFEN-6,2018-048A,2026-06-05T05:05:52.656000,14.76619437,.0011146,97.7760,219.3351,208.0161,152.0450,0,U,43484,999,43162,.1567E-3,.1046E-4,0
GAOFEN-11 01,2018-063A,2026-06-05T04:55:03.861984,15.54930051,.0004449,97.1295,223.1200,39.2382,320.9194,0,U,43585,999,43848,.20347E-3,.13518E-3,0
